GUOWANG TEST OBJECT C   
1 69322U 26120C   26155.47266880  .00020158  00000+0  51568-3 0  9996
2 69322  54.9977  84.9896 0009732 304.1612  55.8493 15.39427828   730
GUOWANG TEST OBJECT D   
1 69323U 26120D   26155.66644343  .00032137  00000+0  80800-3 0  9993
2 69323  55.0029  84.1123 0008003 301.7889  58.2360 15.39704502   765
QIANFAN-163             
1 69325U 26121A   26154.98440444  .00000017  00000+0  67682-5 0  9993
2 69325  89.0161 301.8508 0018824 226.7301 133.2285 13.60350498   363
QIANFAN-164             
1 69326U 26121B   26154.98411229  .00000122  00000+0  14664-3 0  9990
2 69326  89.0158 301.8507 0018193 228.0170 131.9437 13.60503556   366
SZ-22 MODULE            
1 69328U 25272C   26155.88390613  .00022999  00000+0  28240-3 0  9992
2 69328  41.4809  36.8770 0008357 349.8507  10.2162 15.59716852  1402
